{
  "type": "FeatureCollection",
  "features": [
    {
      "type": "Feature",
      "properties": {
        "norad_id": 40010,
        "name": "KAZEOSAT 2",
        "group": "resource",
        "lat": 9.123698951493912,
        "lon": 25.422144614633137,
        "alt_km": 608.7282092035039,
        "timestamp": "2025-12-26T14:28:47.346171+00:00",
        "meta_object_name": "KAZEOSAT 2",
        "meta_object_id": "2014-033A",
        "meta_epoch": "2025-12-26T07:14:46.238784",
        "meta_mean_motion": 14.85187635,
        "meta_eccentricity": 0.0008809,
        "meta_inclination": 97.5496,
        "meta_ra_of_asc_node": 203.916,
        "meta_arg_of_pericenter": 160.429,
        "meta_mean_anomaly": 199.7266,
        "meta_ephemeris_type": 0,
        "meta_classification_type": "U",
        "meta_norad_cat_id": 40010,
        "meta_element_set_no": 999,
        "meta_rev_at_epoch": 62329,
        "meta_bstar": 2.5701412e-05,
        "meta_mean_motion_dot": 1.7e-06,
        "meta_mean_motion_ddot": 0,
        "tle_line1": "1 40010U 14033A   25360.30192406  .00000170  00000+0  25701-4 0  9993",
        "tle_line2": "2 40010  97.5496 203.9160 0008809 160.4290 199.7266 14.85187635623295"
      },
      "geometry": {
        "type": "Point",
        "coordinates": [
          25.422144614633137,
          9.123698951493912
        ]
      }
    },
    {
      "type": "Feature",
      "properties": {
        "norad_id": 40011,
        "name": "HODOYOSHI-4",
        "group": "resource",
        "lat": 13.95801664128727,
        "lon": -173.08302538331907,
        "alt_km": 619.7898287860326,
        "timestamp": "2025-12-26T14:28:47.346182+00:00",
        "meta_object_name": "HODOYOSHI-4",
        "meta_object_id": "2014-033B",
        "meta_epoch": "2025-12-26T06:20:39.612768",
        "meta_mean_motion": 14.87526094,
        "meta_eccentricity": 0.00242833,
        "meta_inclination": 97.5412,
        "meta_ra_of_asc_node": 188.4817,
        "meta_arg_of_pericenter": 155.8041,
        "meta_mean_anomaly": 204.4322,
        "meta_ephemeris_type": 0,
        "meta_classification_type": "U",
        "meta_norad_cat_id": 40011,
        "meta_element_set_no": 999,
        "meta_rev_at_epoch": 62309,
        "meta_bstar": 9.6177556e-05,
        "meta_mean_motion_dot": 8.25e-06,
        "meta_mean_motion_ddot": 0,
        "tle_line1": "1 40011U 14033B   25360.26434737  .00000825  00000+0  96178-4 0  9998",
        "tle_line2": "2 40011  97.5412 188.4817 0024283 155.8041 204.4322 14.87526094623099"
      },
      "geometry": {
        "type": "Point",
        "coordinates": [
          -173.08302538331907,
          13.95801664128727
        ]
      }
    },
    {
      "type": "Feature",
      "properties": {
        "norad_id": 40013,
        "name": "DEIMOS-2",
        "group": "resource",
        "lat": 81.20270370050142,
        "lon": 176.2594591959747,
        "alt_km": 580.1936324723101,
        "timestamp": "2025-12-26T14:28:47.346192+00:00",
        "meta_object_name": "DEIMOS-2",
        "meta_object_id": "2014-033D",
        "meta_epoch": "2025-12-26T06:03:20.473056",
        "meta_mean_motion": 14.93028659,
        "meta_eccentricity": 0.00013434,
        "meta_inclination": 97.6046,
        "meta_ra_of_asc_node": 235.6071,
        "meta_arg_of_pericenter": 108.0641,
        "meta_mean_anomaly": 252.0725,
        "meta_ephemeris_type": 0,
        "meta_classification_type": "U",
        "meta_norad_cat_id": 40013,
        "meta_element_set_no": 999,
        "meta_rev_at_epoch": 61191,
        "meta_bstar": 0.00021486028,
        "meta_mean_motion_dot": 2.18e-05,
        "meta_mean_motion_ddot": 0,
        "tle_line1": "1 40013U 14033D   25360.25232029  .00002180  00000+0  21486-3 0  9994",
        "tle_line2": "2 40013  97.6046 235.6071 0001343 108.0641 252.0725 14.93028659611915"
      },
      "geometry": {
        "type": "Point",
        "coordinates": [
          176.2594591959747,
          81.20270370050142
        ]
      }
    },
    {
      "type": "Feature",
      "properties": {
        "norad_id": 40015,
        "name": "HODOYOSHI-3",
        "group": "resource",
        "lat": 13.490084028981764,
        "lon": -12.323048587396409,
        "alt_km": 596.3894940417567,
        "timestamp": "2025-12-26T14:28:47.346202+00:00",
        "meta_object_name": "HODOYOSHI-3",
        "meta_object_id": "2014-033F",
        "meta_epoch": "2025-12-26T05:38:42.730656",
        "meta_mean_motion": 14.84851914,
        "meta_eccentricity": 0.00326024,
        "meta_inclination": 97.6208,
        "meta_ra_of_asc_node": 165.4843,
        "meta_arg_of_pericenter": 202.148,
        "meta_mean_anomaly": 157.8329,
        "meta_ephemeris_type": 0,
        "meta_classification_type": "U",
        "meta_norad_cat_id": 40015,
        "meta_element_set_no": 999,
        "meta_rev_at_epoch": 62195,
        "meta_bstar": 0.00020161104,
        "meta_mean_motion_dot": 1.677e-05,
        "meta_mean_motion_ddot": 0,
        "tle_line1": "1 40015U 14033F   25360.23521679  .00001677  00000+0  20161-3 0  9995",
        "tle_line2": "2 40015  97.6208 165.4843 0032602 202.1480 157.8329 14.84851914621958"
      },
      "geometry": {
        "type": "Point",
        "coordinates": [
          -12.323048587396409,
          13.490084028981764
        ]
      }
    },
    {
      "type": "Feature",
      "properties": {
        "norad_id": 40053,
        "name": "SPOT 7",
        "group": "resource",
        "lat": 49.93416447958368,
        "lon": -107.90774734840876,
        "alt_km": 685.4945919005277,
        "timestamp": "2025-12-26T14:28:47.346212+00:00",
        "meta_object_name": "SPOT 7",
        "meta_object_id": "2014-034A",
        "meta_epoch": "2025-12-26T05:40:12.628992",
        "meta_mean_motion": 14.60750859,
        "meta_eccentricity": 0.00015102,
        "meta_inclination": 98.0883,
        "meta_ra_of_asc_node": 61.9994,
        "meta_arg_of_pericenter": 81.2033,
        "meta_mean_anomaly": 278.9339,
        "meta_ephemeris_type": 0,
        "meta_classification_type": "U",
        "meta_norad_cat_id": 40053,
        "meta_element_set_no": 999,
        "meta_rev_at_epoch": 61188,
        "meta_bstar": 0.00014344588,
        "meta_mean_motion_dot": 6.54e-06,
        "meta_mean_motion_ddot": 0,
        "tle_line1": "1 40053U 14034A   25360.23625728  .00000654  00000+0  14345-3 0  9999",
        "tle_line2": "2 40053  98.0883  61.9994 0001510  81.2033 278.9339 14.60750859611882"
      },
      "geometry": {
        "type": "Point",
        "coordinates": [
          -107.90774734840876,
          49.93416447958368
        ]
      }
    },
    {
      "type": "Feature",
      "properties": {
        "norad_id": 40072,
        "name": "SKYSAT-B",
        "group": "resource",
        "lat": -48.624620967321114,
        "lon": -45.34341601803774,
        "alt_km": 617.5339527727156,
        "timestamp": "2025-12-26T14:28:47.346222+00:00",
        "meta_object_name": "SKYSAT-B",
        "meta_object_id": "2014-037D",
        "meta_epoch": "2025-12-26T06:37:43.106304",
        "meta_mean_motion": 14.87375186,
        "meta_eccentricity": 0.00068695,
        "meta_inclination": 98.363,
        "meta_ra_of_asc_node": 304.6984,
        "meta_arg_of_pericenter": 112.8088,
        "meta_mean_anomaly": 247.3853,
        "meta_ephemeris_type": 0,
        "meta_classification_type": "U",
        "meta_norad_cat_id": 40072,
        "meta_element_set_no": 999,
        "meta_rev_at_epoch": 62025,
        "meta_bstar": 0.00021571569,
        "meta_mean_motion_dot": 1.889e-05,
        "meta_mean_motion_ddot": 0,
        "tle_line1": "1 40072U 14037D   25360.27619336  .00001889  00000+0  21572-3 0  9996",
        "tle_line2": "2 40072  98.3630 304.6984 0006869 112.8088 247.3853 14.87375186620252"
      },
      "geometry": {
        "type": "Point",
        "coordinates": [
          -45.34341601803774,
          -48.624620967321114
        ]
      }
    },
    {
      "type": "Feature",
      "properties": {
        "norad_id": 40115,
        "name": "WORLDVIEW-3 (WV-3)",
        "group": "resource",
        "lat": 79.4555815306478,
        "lon": 24.666824719029254,
        "alt_km": 606.1715062025651,
        "timestamp": "2025-12-26T14:28:47.346233+00:00",
        "meta_object_name": "WORLDVIEW-3 (WV-3)",
        "meta_object_id": "2014-048A",
        "meta_epoch": "2025-12-26T06:01:12.024768",
        "meta_mean_motion": 14.84678254,
        "meta_eccentricity": 0.00020833,
        "meta_inclination": 97.8763,
        "meta_ra_of_asc_node": 72.3663,
        "meta_arg_of_pericenter": 127.685,
        "meta_mean_anomaly": 232.4554,
        "meta_ephemeris_type": 0,
        "meta_classification_type": "U",
        "meta_norad_cat_id": 40115,
        "meta_element_set_no": 999,
        "meta_rev_at_epoch": 61624,
        "meta_bstar": 0.00014057414,
        "meta_mean_motion_dot": 1.136e-05,
        "meta_mean_motion_ddot": 0,
        "tle_line1": "1 40115U 14048A   25360.25083362  .00001136  00000+0  14057-3 0  9993",
        "tle_line2": "2 40115  97.8763  72.3663 0002083 127.6850 232.4554 14.84678254616245"
      },
      "geometry": {
        "type": "Point",
        "coordinates": [
          24.666824719029254,
          79.4555815306478
        ]
      }
    }
  ]
}